{
  "norad_id": 65741,
  "name": "STARLINK-35284",
  "history": [
    {
      "epoch": "2026-03-28T22:00:01.999584Z",
      "apogee_km": 475.74023821681385,
      "perigee_km": 474.916588743421,
      "latitude_deg": 37.524102203791024,
      "longitude_deg": 122.31984098519031,
      "height_km": 478.03688668812174,
      "semi_major_axis_km": 6853.465413480117,
      "eccentricity": 6.009e-05,
      "inclination_deg": 53.1578,
      "raan_deg": 243.7522,
      "arg_perigee_deg": 76.3064,
      "mean_anomaly_deg": 333.0716,
      "mean_motion_rev_day": 15.3016204
    },
    {
      "epoch": "2026-03-29T00:00:01.999296Z",
      "apogee_km": 475.63952657919435,
      "perigee_km": 474.8719465926961,
      "latitude_deg": 24.642724311068758,
      "longitude_deg": -143.04309501414417,
      "height_km": 476.218450284117,
      "semi_major_axis_km": 6853.3927365859445,
      "eccentricity": 5.6e-05,
      "inclination_deg": 53.1578,
      "raan_deg": 243.3646,
      "arg_perigee_deg": 55.1351,
      "mean_anomaly_deg": 93.5481,
      "mean_motion_rev_day": 15.3018638
    },
    {
      "epoch": "2026-03-29T00:00:02.000160Z",
      "apogee_km": 475.6398007149037,
      "perigee_km": 474.87167245698583,
      "latitude_deg": 24.642720853218,
      "longitude_deg": -143.04309530581122,
      "height_km": 476.2184668611081,
      "semi_major_axis_km": 6853.3927365859445,
      "eccentricity": 5.604e-05,
      "inclination_deg": 53.1578,
      "raan_deg": 243.3646,
      "arg_perigee_deg": 55.1351,
      "mean_anomaly_deg": 93.5481,
      "mean_motion_rev_day": 15.3018638
    },
    {
      "epoch": "2026-03-30T09:50:23.252640Z",
      "apogee_km": 475.500209851838,
      "perigee_km": 474.9349451662838,
      "latitude_deg": 4.2852431088488754e-05,
      "longitude_deg": -98.58508492507795,
      "height_km": 475.8351956333242,
      "semi_major_axis_km": 6853.354577509061,
      "eccentricity": 4.124e-05,
      "inclination_deg": 53.1607,
      "raan_deg": 236.8139,
      "arg_perigee_deg": 3.4071,
      "mean_anomaly_deg": 356.6933,
      "mean_motion_rev_day": 15.3019916
    },
    {
      "epoch": "2026-03-30T16:06:35.938656Z",
      "apogee_km": 475.5541688103476,
      "perigee_km": 474.8830882272032,
      "latitude_deg": -1.7774140731087658e-05,
      "longitude_deg": 165.89080423252955,
      "height_km": 475.9850957243951,
      "semi_major_axis_km": 6853.355628518775,
      "eccentricity": 4.896e-05,
      "inclination_deg": 53.1607,
      "raan_deg": 235.6002,
      "arg_perigee_deg": 66.6917,
      "mean_anomaly_deg": 293.4135,
      "mean_motion_rev_day": 15.30198808
    },
    {
      "epoch": "2026-03-31T15:37:23.908224Z",
      "apogee_km": 475.86716235165386,
      "perigee_km": 474.63766429090447,
      "latitude_deg": 2.119040281937908e-06,
      "longitude_deg": 167.67418920750268,
      "height_km": 475.91445734458574,
      "semi_major_axis_km": 6853.389413321279,
      "eccentricity": 8.97e-05,
      "inclination_deg": 53.1622,
      "raan_deg": 231.0491,
      "arg_perigee_deg": 292.8622,
      "mean_anomaly_deg": 67.2284,
      "mean_motion_rev_day": 15.30187493
    },
    {
      "epoch": "2026-04-01T08:51:59.178816Z",
      "apogee_km": 475.9806240446551,
      "perigee_km": 474.3659841370127,
      "latitude_deg": -2.1665324955352262e-05,
      "longitude_deg": -95.01723858284556,
      "height_km": 476.007173733847,
      "semi_major_axis_km": 6853.310304090834,
      "eccentricity": 0.0001178,
      "inclination_deg": 53.16,
      "raan_deg": 227.7128,
      "arg_perigee_deg": 85.4285,
      "mean_anomaly_deg": 274.685,
      "mean_motion_rev_day": 15.30213988
    },
    {
      "epoch": "2026-04-02T02:06:36.652608Z",
      "apogee_km": 476.6572137334233,
      "perigee_km": 474.05466832399634,
      "latitude_deg": -1.700316010594662e-05,
      "longitude_deg": 2.2812495808659103,
      "height_km": 476.47396469429856,
      "semi_major_axis_km": 6853.4929410287095,
      "eccentricity": 0.00018987,
      "inclination_deg": 53.162,
      "raan_deg": 224.3756,
      "arg_perigee_deg": 99.7604,
      "mean_anomaly_deg": 260.3611,
      "mean_motion_rev_day": 15.30152821
    },
    {
      "epoch": "2026-04-03T14:09:47.435040Z",
      "apogee_km": 476.2928455556739,
      "perigee_km": 474.0723700027538,
      "latitude_deg": -3.7537149278910884e-05,
      "longitude_deg": 173.02766417963164,
      "height_km": 475.1039820464757,
      "semi_major_axis_km": 6853.319607779214,
      "eccentricity": 0.000162,
      "inclination_deg": 53.163,
      "raan_deg": 217.3976,
      "arg_perigee_deg": 28.28,
      "mean_anomaly_deg": 331.8288,
      "mean_motion_rev_day": 15.30210872
    },
    {
      "epoch": "2026-04-04T15:14:39.766272Z",
      "apogee_km": 476.3601807266714,
      "perigee_km": 473.8751905776544,
      "latitude_deg": -1.585453276796115e-05,
      "longitude_deg": 150.92388448593815,
      "height_km": 474.92002395760136,
      "semi_major_axis_km": 6853.254685652163,
      "eccentricity": 0.0001813,
      "inclination_deg": 53.1609,
      "raan_deg": 212.5419,
      "arg_perigee_deg": 28.0617,
      "mean_anomaly_deg": 332.0481,
      "mean_motion_rev_day": 15.30232616
    },
    {
      "epoch": "2026-04-05T13:11:24.226944Z",
      "apogee_km": 475.6591805047783,
      "perigee_km": 474.71342188921244,
      "latitude_deg": -4.876792215758551e-05,
      "longitude_deg": 176.5900286356421,
      "height_km": 476.3725442544229,
      "semi_major_axis_km": 6853.323301196995,
      "eccentricity": 6.9e-05,
      "inclination_deg": 53.1598,
      "raan_deg": 208.2946,
      "arg_perigee_deg": 127.4023,
      "mean_anomaly_deg": 232.704,
      "mean_motion_rev_day": 15.30209635
    },
    {
      "epoch": "2026-04-05T13:11:24.227808Z",
      "apogee_km": 475.65890637184475,
      "perigee_km": 474.7136960221451,
      "latitude_deg": -4.583260911489792e-05,
      "longitude_deg": 176.59002721273114,
      "height_km": 476.3723777463974,
      "semi_major_axis_km": 6853.323301196995,
      "eccentricity": 6.896e-05,
      "inclination_deg": 53.1598,
      "raan_deg": 208.2946,
      "arg_perigee_deg": 127.4023,
      "mean_anomaly_deg": 232.704,
      "mean_motion_rev_day": 15.30209635
    },
    {
      "epoch": "2026-04-06T00:09:46.586016Z",
      "apogee_km": 476.1441123541035,
      "perigee_km": 474.16515586183687,
      "latitude_deg": 3.970627602729007e-05,
      "longitude_deg": 9.425390863226575,
      "height_km": 475.4255575297403,
      "semi_major_axis_km": 6853.29163410797,
      "eccentricity": 0.00014438,
      "inclination_deg": 53.1592,
      "raan_deg": 206.1737,
      "arg_perigee_deg": 50.6572,
      "mean_anomaly_deg": 309.4557,
      "mean_motion_rev_day": 15.30220241
    },
    {
      "epoch": "2026-04-07T13:47:03.007968Z",
      "apogee_km": 475.89441375299157,
      "perigee_km": 474.5703427891103,
      "latitude_deg": -1.840478335546686e-05,
      "longitude_deg": 156.2828696717837,
      "height_km": 476.09557480325327,
      "semi_major_axis_km": 6853.369378271051,
      "eccentricity": 9.66e-05,
      "inclination_deg": 53.1585,
      "raan_deg": 198.8947,
      "arg_perigee_deg": 86.9582,
      "mean_anomaly_deg": 273.1529,
      "mean_motion_rev_day": 15.30194203
    },
    {
      "epoch": "2026-04-08T13:17:51.084672Z",
      "apogee_km": 475.6442983806446,
      "perigee_km": 474.8231275018188,
      "latitude_deg": 2.1218494979482046e-05,
      "longitude_deg": 158.06341747472524,
      "height_km": 475.87990935595246,
      "semi_major_axis_km": 6853.370712941231,
      "eccentricity": 5.991e-05,
      "inclination_deg": 53.1564,
      "raan_deg": 194.3412,
      "arg_perigee_deg": 52.0426,
      "mean_anomaly_deg": 308.0629,
      "mean_motion_rev_day": 15.30193756
    },
    {
      "epoch": "2026-04-09T12:48:38.788992Z",
      "apogee_km": 475.876845797894,
      "perigee_km": 474.6273358988501,
      "latitude_deg": -4.894350136951355e-05,
      "longitude_deg": 159.8489393526031,
      "height_km": 476.044532749509,
      "semi_major_axis_km": 6853.389090848372,
      "eccentricity": 9.116e-05,
      "inclination_deg": 53.1577,
      "raan_deg": 189.7912,
      "arg_perigee_deg": 80.2418,
      "mean_anomaly_deg": 279.8685,
      "mean_motion_rev_day": 15.30187601
    },
    {
      "epoch": "2026-04-10T12:19:27.232032Z",
      "apogee_km": 475.88013142856107,
      "perigee_km": 474.63144326270685,
      "latitude_deg": -2.679460087629499e-05,
      "longitude_deg": 161.6311439342719,
      "height_km": 475.81594166424725,
      "semi_major_axis_km": 6853.392787345634,
      "eccentricity": 9.11e-05,
      "inclination_deg": 53.1585,
      "raan_deg": 185.2409,
      "arg_perigee_deg": 57.1753,
      "mean_anomaly_deg": 302.9335,
      "mean_motion_rev_day": 15.30186363
    },
    {
      "epoch": "2026-04-11T11:50:15.496224Z",
      "apogee_km": 476.0411301725253,
      "perigee_km": 474.31957685332327,
      "latitude_deg": 2.5822834268986943e-05,
      "longitude_deg": 163.41481910892583,
      "height_km": 475.4663666626074,
      "semi_major_axis_km": 6853.317353512924,
      "eccentricity": 0.0001256,
      "inclination_deg": 53.1596,
      "raan_deg": 180.6913,
      "arg_perigee_deg": 44.6325,
      "mean_anomaly_deg": 315.4777,
      "mean_motion_rev_day": 15.30211627
    },
    {
      "epoch": "2026-04-13T04:35:37.966560Z",
      "apogee_km": 475.95155015500313,
      "perigee_km": 474.4690340687739,
      "latitude_deg": 8.319296596786283e-06,
      "longitude_deg": -97.49302089136395,
      "height_km": 476.26556852060423,
      "semi_major_axis_km": 6853.347292111888,
      "eccentricity": 0.00010816,
      "inclination_deg": 53.1601,
      "raan_deg": 172.8009,
      "arg_perigee_deg": 102.2205,
      "mean_anomaly_deg": 257.8917,
      "mean_motion_rev_day": 15.302016
    }
  ]
}